HORYU-4                 
1 41340U 16012D   20203.13655086  .00000307  00000-0  16465-4 0  9999
2 41340  31.0049 117.2768 0013858 123.8689 236.3267 15.01520230242944
E-ST@R-II               
1 41459U 16025D   20203.40412466  .00000828  00000-0  45215-4 0  9990
2 41459  98.1075 315.1681 0166065  97.5978 264.4143 15.06511425232550
AAUSAT 4                
1 41460U 16025E   20203.29000646  .00001376  00000-0  70089-4 0  9998
2 41460  98.1068 317.4990 0155003  86.3445 275.5491 15.08865683232747
BEESAT-4                
1 41619U 16040W   20203.10749722  .00000868  00000-0  38565-4 0  9994
2 41619  97.3172 261.8425 0012639  65.4309 294.8244 15.24083635214522
CANX-7                  
1 41788U 16059F   20203.40772243  .00006215  00000-0  84607-3 0  9997
2 41788  98.2571 292.1146 0030726 181.3104 178.8046 14.78783088204838
RAVAN                   
1 41849U 16067B   20203.26224152  .00000985  00000-0  87292-4 0  9991
2 41849  97.9375 313.6945 0010457 124.1304 236.0911 14.98588804201685
CELTEE 1                
1 41850U 16067C   20203.28856059 -.00000259  00000-0 -17091-4 0  9998
2 41850  97.9300 311.3499 0009611 130.8895 229.3160 14.97195475201568
OPTICUBE 04             
1 41851U 16067D   20203.35849604 -.00000171  00000-0 -95812-5 0  9996
2 41851  97.9288 311.0217 0009761 132.9807 227.2233 14.96931608201553
AEROCUBE 8D             
1 41852U 16067E   20203.37486433  .00000481  00000-0  47163-4 0  9993
2 41852  97.9296 310.8757 0010905 133.0813 227.1323 14.96923970201530
AEROCUBE 8C             
1 41853U 16067F   20203.27351969 -.00000386  00000-0 -28290-4 0  9994
2 41853  97.9299 310.6749 0010922 133.4783 226.7348 14.96893674201519
PROMETHEUS 2-1          
1 41854U 16067G   20203.30263424  .00000338  00000-0  34510-4 0  9994
2 41854  97.9299 311.0544 0011442 134.6378 225.5778 14.97215574201533
PROMETHEUS 2-3          
1 41855U 16067H   20203.36968274  .00000356  00000-0  36009-4 0  9991
2 41855  97.9301 311.1566 0011633 134.7584 225.4586 14.97225479201547
INS-1B                  
1 41954U 17008G   20203.40541481  .00000786  00000-0  34481-4 0  9998
2 41954  97.3524 267.1958 0009211 170.6606 189.4804 15.24845510190540
BGUSAT                  
1 41999U 17008BD  20203.14275224  .00001359  00000-0  53050-4 0  9997
2 41999  97.3642 271.2731 0007891 177.9270 182.2003 15.27611795190095
DIDO-2                  
1 42000U 17008BE  20203.44094012  .00000557  00000-0  25482-4 0  9995
2 42000  97.3531 267.7244 0008042 188.8983 171.2113 15.24520806189947
PEASSS                  
1 42015U 17008BV  20203.26161216  .00000696  00000-0  30141-4 0  9994
2 42015  97.3556 269.2179 0005869 188.6573 171.4565 15.25672975190504
AL-FARABI 1             
1 42016U 17008BW  20203.13286357  .00000903  00000-0  37315-4 0  9996
2 42016  97.3588 270.1917 0005765 187.2791 172.8365 15.26531460190667
NAYIF-1 (EO-88)         
1 42017U 17008BX  20203.43841870  .00000907  00000-0  37409-4 0  9995
2 42017  97.3582 270.5034 0005860 185.8812 174.2359 15.26573287190730
UCLSAT                  
1 42765U 17036A   20203.24402832  .00000669  00000-0  30842-4 0  9995
2 42765  97.2986 256.5751 0009457 266.5060  93.5096 15.23585400171721
LITUANICASAT-2          
1 42768U 17036D   20203.40548832  .00001217  00000-0  52759-4 0  9998
2 42768  97.3041 256.7583 0012866 254.0124 105.9697 15.24174887171014
AALTO-1                 
1 42775U 17036L   20203.38017585  .00000440  00000-0  22318-4 0  9994
2 42775  97.2959 254.4286 0012086 258.9229 101.0649 15.21881936170837
URSA MAIOR              
1 42776U 17036M   20203.29962517  .00000488  00000-0  24270-4 0  9990
2 42776  97.2971 254.6495 0011902 258.8193 101.1705 15.22068394170831
COMPASS 2               
1 42777U 17036N   20203.43135226  .00000983  00000-0  43429-4 0  9993
2 42777  97.3030 257.1900 0010479 255.0105 104.9973 15.24007690170975
DIAMOND RED             
1 42783U 17036U   20203.38540648  .00000564  00000-0  26986-4 0  9996
2 42783  97.2984 255.9454 0010187 268.5387  91.4683 15.22887775170916
PEGASUS                 
1 42784U 17036V   20203.40761881  .00000649  00000-0  30256-4 0  9993
2 42784  97.2989 256.4100 0010060 267.0110  92.9976 15.23273271170949
DIAMOND GREEN           
1 42785U 17036W   20203.38418287  .00000568  00000-0  27126-4 0  9992
2 42785  97.2986 255.9808 0010070 269.3579  90.6504 15.22888578170988
DIAMOND BLUE            
1 42786U 17036X   20203.38340255  .00000573  00000-0  27375-4 0  9994
2 42786  97.2986 255.9751 0009928 269.5542  90.4558 15.22887929170984
NUDTSAT                 
1 42787U 17036Y   20203.43511387  .00001105  00000-0  47584-4 0  9993
2 42787  97.3040 257.9115 0010202 270.8649  89.1421 15.24611032170877
SUCHAI                  
1 42788U 17036Z   20203.35382136  .00000785  00000-0  35423-4 0  9995
2 42788  97.2997 256.9776 0009591 265.0730  94.9413 15.23834050171047
SKCUBE                  
1 42789U 17036AA  20203.40346843  .00000723  00000-0  33006-4 0  9994
2 42789  97.2992 256.8681 0009485 265.3189  94.6965 15.23671437170967
VZLUSAT-1               
1 42790U 17036AB  20203.42442333  .00001012  00000-0  43860-4 0  9990
2 42790  97.3018 257.8958 0008977 262.0308  97.9911 15.24596021171020
ROBUSTA-1B              
1 42792U 17036AD  20203.41871393  .00000784  00000-0  35336-4 0  9997
2 42792  97.2994 257.1449 0009061 265.5954  94.4249 15.23863051170992
CICERO 6                
1 42793U 17036AE  20203.15771756  .00000511  00000-0  24506-4 0  9996
2 42793  97.2970 256.2543 0008408 270.1603  89.8671 15.23189601170998
D-SAT                   
1 42794U 17036AF  20203.32638258 -.00000026  00000-0  33496-5 0  9996
2 42794  97.4913 234.3030 0124589 251.7284 107.0346 14.91293371167740
CORVUS BC2              
1 42846U 17042X   20203.44060267  .00000053  00000-0  10420-4 0  9993
2 42846  97.5187  85.4597 0010083 155.8752 204.2942 14.92117899164472
CORVUS BC1              
1 42847U 17042Y   20203.36693700  .00000176  00000-0  22417-4 0  9994
2 42847  97.5190  85.5651 0009732 155.1572 205.0118 14.92219295164467
MIRATA                  
1 43015U 17073C   20203.35075559  .00000468  00000-0  42224-4 0  9993
2 43015  97.7173 114.2784 0251781 298.2368  59.3633 14.79715507144237
MAKERSAT 0              
1 43016U 17073D   20203.25454709  .00000334  00000-0  31914-4 0  9997
2 43016  97.7208 114.3595 0254591 299.6808  57.9276 14.79263801144203
DELLINGR (RBLE)         
1 43021U 98067NJ  20203.33490172  .00009245  00000-0  75329-4 0  9996
2 43021  51.6357 106.5763 0001553 152.3934 207.7147 15.71472647152198
AEROCUBE 7B (OCSD B)    
1 43042U 17071F   20203.41795254  .00001766  00000-0  47514-4 0  9998
2 43042  51.6369 259.8748 0004407 165.0864 195.0253 15.43802771147626
AEROCUBE 7C (OCSD C)    
1 43043U 17071G   20203.42189446  .00001792  00000-0  48118-4 0  9990
2 43043  51.6370 259.9162 0004585 169.5557 190.5526 15.43777289147599
CHEFSAT                 
1 43044U 17071H   20203.36718704  .00003746  00000-0  76690-4 0  9996
2 43044  51.6365 244.0898 0003919 176.7969 183.3046 15.48782210147808
ASGARDIA 1              
1 43049U 17071N   20203.41453438  .00001625  00000-0  44420-4 0  9997
2 43049  51.6381 259.1947 0002228 180.0630 180.0356 15.43805344147603
ISARA                   
1 43050U 17071P   20203.37202558  .00003066  00000-0  66585-4 0  9996
2 43050  51.6352 246.9918 0001885 184.7658 175.3312 15.47709634147769
PROPCUBE 2 (FAUNA)      
1 43052U 17071R   20203.45529879  .00001710  00000-0  45597-4 0  9999
2 43052  51.6375 257.2341 0002168 177.5303 182.5695 15.44273629147629
CORVUS BC3              
1 43118U 18004H   20203.45179975  .00000402  00000-0  19881-4 0  9991
2 43118  97.4425 273.4452 0008748 297.5971  62.4377 15.23406884140177
MICROMAS-2A             
1 43131U 18004W   20203.43256562  .00001063  00000-0  45005-4 0  9993
2 43131  97.4476 275.2796 0007501 296.0638  63.9828 15.25378046140277
SPACEBEE-4              
1 43139U 18004AE  20203.43730045  .00001617  00000-0  64355-4 0  9998
2 43139  97.4511 276.5491 0006804 296.5571  63.4970 15.26709320140342
SPACEBEE-3              
1 43140U 18004AF  20203.42688478  .00002007  00000-0  77061-4 0  9993
2 43140  97.4529 277.2792 0006388 294.0169  66.0401 15.27640137140381
SPACEBEE-2              
1 43141U 18004AG  20203.33406956  .00002127  00000-0  80739-4 0  9992
2 43141  97.4542 277.4671 0006345 293.2461  66.8110 15.27955367140383
SPACEBEE-1              
1 43142U 18004AH  20203.22833076  .00002293  00000-0  85857-4 0  9998
2 43142  97.4547 277.6422 0006315 293.1435  66.9138 15.28323464140370
CICERO 7                
1 43143U 18004AJ  20203.43294872  .00000977  00000-0  41557-4 0  9993
2 43143  97.4454 275.4546 0005912 309.3239  50.7474 15.25408484140293
GOMX-4B                 
1 43196U 18015E   20203.29078065  .00000174  00000-0  10079-4 0  9995
2 43196  97.4425 331.5751 0018450 351.0175   9.0729 15.24280635137050
GOMX-4A                 
1 43197U 18015F   20203.37340215  .00000379  00000-0  18292-4 0  9996
2 43197  97.4415 331.7574 0018658 350.8166  72.8899 15.24544934137086
UBAKUSAT                
1 43467U 98067NQ  20203.14346335  .00019429  00000-0  12102-3 0  9994
2 43467  51.6355 108.1467 0001787 138.5511 221.5625 15.76955897125424
CUBERRT                 
1 43546U 98067NU  20203.15341068  .00009335  00000-0  66660-4 0  9995
2 43546  51.6327 108.2507 0002281 195.6254 164.4675 15.74611477115559
TEMPEST-D               
1 43547U 98067NV  20203.17518871  .00003226  00000-0  40822-4 0  9991
2 43547  51.6363 141.5789 0004377 173.6076 186.4975 15.62896505114794
RAINCUBE                
1 43548U 98067NW  20203.33543435  .00021001  00000-0  13706-3 0  9995
2 43548  51.6324 115.4219 0002803 195.2209 164.8707 15.75826057115603
HALOSAT                 
1 43549U 98067NX  20203.03944251  .00020064  00000-0  13723-3 0  9991
2 43549  51.6362 118.0442 0002148 198.0357 162.0566 15.74776885115100
